[{"OBJECT_NAME":"SDA_1684","OBJECT_ID":"2025-230W","EPOCH":"2026-03-09T22:42:30.839328","MEAN_MOTION":13.84530405,"ECCENTRICITY":0.00030032,"INCLINATION":81.3001,"RA_OF_ASC_NODE":303.7717,"ARG_OF_PERICENTER":64.2514,"MEAN_ANOMALY":295.8953,"EPHEMERIS_TYPE":0,"CLASSIFICATION_TYPE":"U","NORAD_CAT_ID":65994,"ELEMENT_SET_NO":999,"REV_AT_EPOCH":2007,"BSTAR":-0.026007307,"MEAN_MOTION_DOT":-0.00029027,"MEAN_MOTION_DDOT":0},{"OBJECT_NAME":"FENGYUN 1C DEB","OBJECT_ID":"1999-025BFN","EPOCH":"2026-02-24T17:31:53.078880","MEAN_MOTION":14.09280002,"ECCENTRICITY":0.01637124,"INCLINATION":98.6402,"RA_OF_ASC_NODE":39.8629,"ARG_OF_PERICENTER":268.4698,"MEAN_ANOMALY":89.7715,"EPHEMERIS_TYPE":0,"CLASSIFICATION_TYPE":"U","NORAD_CAT_ID":31068,"ELEMENT_SET_NO":999,"REV_AT_EPOCH":97397,"BSTAR":0.00025179459,"MEAN_MOTION_DOT":4.53e-6,"MEAN_MOTION_DDOT":0}]
